{"type": "FeatureCollection", "features": [ {"type": "Feature", "properties": {"norad_id": 67069, "name": "XIWANG-5 02", "group": "last-30-days", "lat": 35.444663440338864, "lon": 108.8064696930415, "alt_km": 500.37905549502375, "timestamp": "2025-12-20T22:39:09.410237+00:00", "meta": {"OBJECT_NAME": "XIWANG-5 02", "OBJECT_ID": "2025-296A", "EPOCH": "2025-12-20T14:28:56.663904", "MEAN_MOTION": 15.16822832, "ECCENTRICITY": 0.00144915, "INCLINATION": 41.3526, "RA_OF_ASC_NODE": 56.7181, "ARG_OF_PERICENTER": 81.4219, "MEAN_ANOMALY": 278.8243, "EPHEMERIS_TYPE": 0, "CLASSIFICATION_TYPE": "U", "NORAD_CAT_ID": 67069, "ELEMENT_SET_NO": 999, "REV_AT_EPOCH": 115, "BSTAR": 0.00040608144, "MEAN_MOTION_DOT": 7.963e-05, "MEAN_MOTION_DDOT": 0}, "tle": {"line1": "1 67069U 25296A   25354.60343361  .00007963  00000+0  40608-3 0  9992", "line2": "2 67069  41.3526  56.7181 0014491  81.4219 278.8243 15.16822832  1152"}}, "geometry": {"type": "Point", "coordinates": [108.8064696930415, 35.444663440338864]}}, {"type": "Feature", "properties": {"norad_id": 67070, "name": "DEAR-5", "group": "last-30-days", "lat": 37.06671662831101, "lon": 113.94448313743113, "alt_km": 498.7282851620748, "timestamp": "2025-12-20T22:39:09.410247+00:00", "meta": {"OBJECT_NAME": "DEAR-5", "OBJECT_ID": "2025-296B", "EPOCH": "2025-12-20T14:27:47.771136", "MEAN_MOTION": 15.16880771, "ECCENTRICITY": 0.00160883, "INCLINATION": 41.3553, "RA_OF_ASC_NODE": 56.714, "ARG_OF_PERICENTER": 82.8141, "MEAN_ANOMALY": 277.4509, "EPHEMERIS_TYPE": 0, "CLASSIFICATION_TYPE": "U", "NORAD_CAT_ID": 67070, "ELEMENT_SET_NO": 999, "REV_AT_EPOCH": 114, "BSTAR": 0.0001721205, "MEAN_MOTION_DOT": 3.26e-05, "MEAN_MOTION_DDOT": 0}, "tle": {"line1": "1 67070U 25296B   25354.60263624  .00003260  00000+0  17212-3 0  9998", "line2": "2 67070  41.3553  56.7140 0016088  82.8141 277.4509 15.16880771  1147"}}, "geometry": {"type": "Point", "coordinates": [113.94448313743113, 37.06671662831101]}}, {"type": "Feature", "properties": {"norad_id": 67071, "name": "KZ-11 R/B", "group": "last-30-days", "lat": -39.01322254021559, "lon": -55.48967350068836, "alt_km": 689.0946206838862, "timestamp": "2025-12-20T22:39:09.410256+00:00", "meta": {"OBJECT_NAME": "KZ-11 R/B", "OBJECT_ID": "2025-296C", "EPOCH": "2025-12-20T13:35:59.156160", "MEAN_MOTION": 15.10636457, "ECCENTRICITY": 0.0581991, "INCLINATION": 41.3222, "RA_OF_ASC_NODE": 59.4281, "ARG_OF_PERICENTER": 8.2061, "MEAN_ANOMALY": 352.7804, "EPHEMERIS_TYPE": 0, "CLASSIFICATION_TYPE": "U", "NORAD_CAT_ID": 67071, "ELEMENT_SET_NO": 999, "REV_AT_EPOCH": 111, "BSTAR": 0.00050214993, "MEAN_MOTION_DOT": 0.06524805, "MEAN_MOTION_DDOT": 6.555933e-06}, "tle": {"line1": "1 67071U 25296C   25354.56665690  .06524805  65559-5  50215-3 0  9998", "line2": "2 67071  41.3222  59.4281 0581991   8.2061 352.7804 15.10636457  1116"}}, "geometry": {"type": "Point", "coordinates": [-55.48967350068836, -39.01322254021559]}}, {"type": "Feature", "properties": {"norad_id": 67072, "name": "ELECTRON R/B", "group": "last-30-days", "lat": 80.80116648671768, "lon": 88.96375074550855, "alt_km": 325.01985730212255, "timestamp": "2025-12-20T22:39:09.410265+00:00", "meta": {"OBJECT_NAME": "ELECTRON R/B", "OBJECT_ID": "2025-297A", "EPOCH": "2025-12-20T14:46:06.555360", "MEAN_MOTION": 15.95830886, "ECCENTRICITY": 0.01738168, "INCLINATION": 97.4665, "RA_OF_ASC_NODE": 142.6834, "ARG_OF_PERICENTER": 204.1469, "MEAN_ANOMALY": 155.1591, "EPHEMERIS_TYPE": 0, "CLASSIFICATION_TYPE": "U", "NORAD_CAT_ID": 67072, "ELEMENT_SET_NO": 999, "REV_AT_EPOCH": 103, "BSTAR": 0.0012696013, "MEAN_MOTION_DOT": 0.02710102, "MEAN_MOTION_DDOT": 2.214265e-06}, "tle": {"line1": "1 67072U 25297A   25354.61535365  .02710102  22143-5  12696-2 0  9996", "line2": "2 67072  97.4665 142.6834 0173816 204.1469 155.1591 15.95830886  1035"}}, "geometry": {"type": "Point", "coordinates": [88.96375074550855, 80.80116648671768]}}, {"type": "Feature", "properties": {"norad_id": 67073, "name": "RAISE-4", "group": "last-30-days", "lat": 65.13436233616233, "lon": 125.79032027760505, "alt_km": 544.0830393929255, "timestamp": "2025-12-20T22:39:09.410274+00:00", "meta": {"OBJECT_NAME": "RAISE-4", "OBJECT_ID": "2025-297B", "EPOCH": "2025-12-20T09:36:45.835200", "MEAN_MOTION": 15.07185014, "ECCENTRICITY": 0.0011383, "INCLINATION": 97.4855, "RA_OF_ASC_NODE": 141.7434, "ARG_OF_PERICENTER": 292.6192, "MEAN_ANOMALY": 67.3831, "EPHEMERIS_TYPE": 0, "CLASSIFICATION_TYPE": "U", "NORAD_CAT_ID": 67073, "ELEMENT_SET_NO": 999, "REV_AT_EPOCH": 94, "BSTAR": 0.00020098462, "MEAN_MOTION_DOT": 2.967e-05, "MEAN_MOTION_DDOT": 0}, "tle": {"line1": "1 67073U 25297B   25354.40053050  .00002967  00000+0  20098-3 0  9999", "line2": "2 67073  97.4855 141.7434 0011383 292.6192  67.3831 15.07185014   947"}}, "geometry": {"type": "Point", "coordinates": [125.79032027760505, 65.13436233616233]}}, {"type": "Feature", "properties": {"norad_id": 67074, "name": "ELECTRON KICK STAGE R/B", "group": "last-30-days", "lat": 25.215870492970943, "lon": -33.6649937294158, "alt_km": 381.90409750293657, "timestamp": "2025-12-20T22:39:09.410285+00:00", "meta": {"OBJECT_NAME": "ELECTRON KICK STAGE R/B", "OBJECT_ID": "2025-297C", "EPOCH": "2025-12-20T09:37:55.540992", "MEAN_MOTION": 15.56699224, "ECCENTRICITY": 0.01998799, "INCLINATION": 97.4822, "RA_OF_ASC_NODE": 142.2173, "ARG_OF_PERICENTER": 241.6709, "MEAN_ANOMALY": 116.4258, "EPHEMERIS_TYPE": 0, "CLASSIFICATION_TYPE": "U", "NORAD_CAT_ID": 67074, "ELEMENT_SET_NO": 999, "REV_AT_EPOCH": 97, "BSTAR": 0.0013588337, "MEAN_MOTION_DOT": 0.00249717, "MEAN_MOTION_DDOT": 1.8464781e-05}, "tle": {"line1": "1 67074U 25297C   25354.40133728  .00249717  18465-4  13588-2 0  9991", "line2": "2 67074  97.4822 142.2173 0199879 241.6709 116.4258 15.56699224   972"}}, "geometry": {"type": "Point", "coordinates": [-33.6649937294158, 25.215870492970943]}}, {"type": "Feature", "properties": {"norad_id": 67120, "name": "STARLINK-36217", "group": "last-30-days", "lat": 13.933886441503494, "lon": -77.87350178902334, "alt_km": 280.1085637203014, "timestamp": "2025-12-20T22:39:09.410294+00:00", "meta": {"OBJECT_NAME": "STARLINK-36217", "OBJECT_ID": "2025-299U", "EPOCH": "2025-12-19T20:00:01.999008", "MEAN_MOTION": 16.00265847, "ECCENTRICITY": 0.0001824, "INCLINATION": 43.0001, "RA_OF_ASC_NODE": 273.6628, "ARG_OF_PERICENTER": 264.7938, "MEAN_ANOMALY": 196.2645, "EPHEMERIS_TYPE": 0, "CLASSIFICATION_TYPE": "U", "NORAD_CAT_ID": 67120, "ELEMENT_SET_NO": 999, "REV_AT_EPOCH": 195, "BSTAR": -0.0025736, "MEAN_MOTION_DOT": -0.01388511, "MEAN_MOTION_DDOT": 0.00059921}, "tle": {"line1": "1 67120U 25299U   25353.83335647 -.01388511  59921-3 -25736-2 0  9993", "line2": "2 67120  43.0001 273.6628 0001824 264.7938 196.2645 16.00265847  1951"}}, "geometry": {"type": "Point", "coordinates": [-77.87350178902334, 13.933886441503494]}}, {"type": "Feature", "properties": {"norad_id": 67121, "name": "STARLINK-36124", "group": "last-30-days", "lat": 16.28408429558324, "lon": -75.05444934362659, "alt_km": 279.03866491402823, "timestamp": "2025-12-20T22:39:09.410303+00:00", "meta": {"OBJECT_NAME": "STARLINK-36124", "OBJECT_ID": "2025-299V", "EPOCH": "2025-12-19T20:00:01.999008", "MEAN_MOTION": 16.00530425, "ECCENTRICITY": 0.0001823, "INCLINATION": 43.0002, "RA_OF_ASC_NODE": 273.6563, "ARG_OF_PERICENTER": 267.4276, "MEAN_ANOMALY": 196.1905, "EPHEMERIS_TYPE": 0, "CLASSIFICATION_TYPE": "U", "NORAD_CAT_ID": 67121, "ELEMENT_SET_NO": 999, "REV_AT_EPOCH": 195, "BSTAR": -0.0025444, "MEAN_MOTION_DOT": -0.01393806, "MEAN_MOTION_DDOT": 0.00060514}, "tle": {"line1": "1 67121U 25299V   25353.83335647 -.01393806  60514-3 -25444-2 0  9993", "line2": "2 67121  43.0002 273.6563 0001823 267.4276 196.1905 16.00530425  1950"}}, "geometry": {"type": "Point", "coordinates": [-75.05444934362659, 16.28408429558324]}}, {"type": "Feature", "properties": {"norad_id": 67122, "name": "STARLINK-36188", "group": "last-30-days", "lat": 16.99095976093026, "lon": -74.18472468474697, "alt_km": 278.8250963000555, "timestamp": "2025-12-20T22:39:09.410312+00:00", "meta": {"OBJECT_NAME": "STARLINK-36188", "OBJECT_ID": "2025-299W", "EPOCH": "2025-12-19T20:00:01.999008", "MEAN_MOTION": 16.00609814, "ECCENTRICITY": 0.0001841, "INCLINATION": 43.0002, "RA_OF_ASC_NODE": 273.6544, "ARG_OF_PERICENTER": 265.2559, "MEAN_ANOMALY": 199.137, "EPHEMERIS_TYPE": 0, "CLASSIFICATION_TYPE": "U", "NORAD_CAT_ID": 67122, "ELEMENT_SET_NO": 999, "REV_AT_EPOCH": 195, "BSTAR": -0.0025322, "MEAN_MOTION_DOT": -0.01393508, "MEAN_MOTION_DDOT": 0.00060543}, "tle": {"line1": "1 67122U 25299W   25353.83335647 -.01393508  60543-3 -25322-2 0  9990", "line2": "2 67122  43.0002 273.6544 0001841 265.2559 199.1370 16.00609814  1958"}}, "geometry": {"type": "Point", "coordinates": [-74.18472468474697, 16.99095976093026]}}, {"type": "Feature", "properties": {"norad_id": 67123, "name": "STARLINK-36151", "group": "last-30-days", "lat": 15.407952797212937, "lon": -76.11768187679449, "alt_km": 279.45460788181026, "timestamp": "2025-12-20T22:39:09.410321+00:00", "meta": {"OBJECT_NAME": "STARLINK-36151", "OBJECT_ID": "2025-299X", "EPOCH": "2025-12-19T20:00:01.999008", "MEAN_MOTION": 16.00416015, "ECCENTRICITY": 0.0001813, "INCLINATION": 43.0002, "RA_OF_ASC_NODE": 273.6587, "ARG_OF_PERICENTER": 266.4198, "MEAN_ANOMALY": 196.2822, "EPHEMERIS_TYPE": 0, "CLASSIFICATION_TYPE": "U", "NORAD_CAT_ID": 67123, "ELEMENT_SET_NO": 999, "REV_AT_EPOCH": 195, "BSTAR": -0.0025489, "MEAN_MOTION_DOT": -0.01387123, "MEAN_MOTION_DDOT": 0.00059908}, "tle": {"line1": "1 67123U 25299X   25353.83335647 -.01387123  59908-3 -25489-2 0  9994", "line2": "2 67123  43.0002 273.6587 0001813 266.4198 196.2822 16.00416015  1956"}}, "geometry": {"type": "Point", "coordinates": [-76.11768187679449, 15.407952797212937]}}]}